GSAT0214 (GALILEO 18)   
1 41862U 16069D   25333.67432713  .00000051  00000+0  00000+0 0  9996
2 41862  55.3728 106.6081 0001037 291.6100  68.3572  1.70474561 56248
GSAT0215 (GALILEO 19)   
1 43055U 17079A   25333.57781500  .00000027  00000+0  00000+0 0  9997
2 43055  55.1353 227.0003 0001588 310.5234  49.5360  1.70473718 49586
GSAT0216 (GALILEO 20)   
1 43056U 17079B   25332.10937407  .00000027  00000+0  00000+0 0  9995
2 43056  55.1357 227.0409 0002717 312.5742  47.4772  1.70473880 49575
GSAT0217 (GALILEO 21)   
1 43057U 17079C   25333.50325399  .00000027  00000+0  00000+0 0  9992
2 43057  55.1326 227.0006 0002756 340.6935  19.3693  1.70473704 49580
GSAT0218 (GALILEO 22)   
1 43058U 17079D   25331.37697178  .00000028  00000+0  00000+0 0  9994
2 43058  55.1342 227.0567 0002971 303.4805  56.5673  1.70473808 49578
GSAT0221 (GALILEO 25)   
1 43564U 18060A   25331.27959316 -.00000056  00000+0  00000+0 0  9993
2 43564  57.2311 347.2356 0006566 278.9073  81.0612  1.70475843 45727
GSAT0222 (GALILEO 26)   
1 43565U 18060B   25333.25866536 -.00000055  00000+0  00000+0 0  9994
2 43565  57.2346 347.1853 0006173 259.4518 100.5223  1.70475509 45802
GSAT0219 (GALILEO 23)   
1 43566U 18060C   25331.13348549 -.00000056  00000+0  00000+0 0  9990
2 43566  57.2341 347.2443 0005717 284.9016  75.0780  1.70475832 45749
